CAS-2T & KS-1Q          
1 41847U 16066G   20338.90534361  .00000201  00000-0  39609-4 0  9994
2 41847  98.6318  30.9304 0366574  83.8739 280.4077 14.38121372213779
NAYIF-1 (EO-88)         
1 42017U 17008BX  20338.44874598  .00004224  00000-0  16140-3 0  9992
2 42017  97.3418  43.4204 0007763  86.3083 273.9044 15.27130378211332
ZHUHAI-1 02 (CAS-4B)    
1 42759U 17034B   20339.04676244  .00000794  00000-0  61414-4 0  9992
2 42759  43.0171 175.1725 0010199  12.0460 125.3606 15.09984018191601
ZHUHAI-1 01 (CAS-4A)    
1 42761U 17034D   20339.04846053  .00000775  00000-0  60175-4 0  9994
2 42761  43.0167 174.3498 0010684  13.9631 124.1774 15.10063587191600
MAX VALIER SAT          
1 42778U 17036P   20338.41944306  .00002577  00000-0  11227-3 0  9999
2 42778  97.2835  27.2051 0013186 141.7594 218.4580 15.23001664191446
RADFXSAT (FOX-1B)       
1 43017U 17073E   20338.99550976  .00001136  00000-0  93621-4 0  9995
2 43017  97.7165 244.6295 0255163 217.5850 140.7290 14.79191568164223
FOX-1D (AO-92)          
1 43137U 18004AC  20338.45817882  .00002990  00000-0  12425-3 0  9997
2 43137  97.4297  48.3499 0009196 171.5104 188.6291 15.24552741160793
DIWATA-2B               
1 43678U 18084H   20339.05515243  .00000495  00000-0  54956-4 0  9992
2 43678  97.9031  97.6495 0009591 344.8533  15.2335 14.91683212114308
ES'HAIL 2               
1 43700U 18090A   20338.60769462  .00000162  00000-0  00000+0 0  9996
2 43700   0.0156 319.7698 0001761 313.2688  44.4637  1.00268878  7642
FOX-1CLIFF (AO-95)      
1 43770U 18099N   20338.43801996  .00000431  00000-0  44425-4 0  9995
2 43770  97.6898  46.7258 0014430 358.8415   1.2770 14.95121770109169
ITASAT 1                
1 43786U 18099AE  20338.46439762  .00000738  00000-0  71778-4 0  9994
2 43786  97.6911  47.2920 0014763 351.5473   8.5497 14.95440115109193
JY1SAT (JO-97)          
1 43803U 18099AX  20338.45778249  .00000710  00000-0  68927-4 0  9991
2 43803  97.6871  47.0674 0014746 351.5194   8.5776 14.95643632109192
PSAT2 (NO-104)          
1 44354U 19036R   20338.28296541  .00029143  00000-0  41487-3 0  9998
2 44354  28.5328 349.1885 0348283 318.4236  39.0354 15.07554700 79287
BRICSAT2 (NO-103)       
1 44355U 19036S   20338.37816480  .00060309  00000-0  77752-3 0  9992
2 44355  28.5300 328.3737 0311786 352.2687   7.3179 15.16954739 79501
JAISAT-1                
1 44419U 19038F   20339.13582442  .00002338  00000-0  13502-3 0  9999
2 44419  97.5627 298.9845 0019633 265.8607  94.0380 15.13164656 78255
DUCHIFAT-3              
1 44854U 19089C   20338.93849417  .00001060  00000-0  91707-4 0  9998
2 44854  36.9654 176.6327 0009358 347.7476  12.3054 14.99231500 53743
RS-44 & BREEZE-KM R/B   
1 44909U 19096E   20338.46728699  .00000034  00000-0  92308-4 0  9991
2 44909  82.5230 243.0010 0217064 191.0875 168.5402 12.79707691 43809
ORBITAL FACTORY 2 (OF-2)
1 45113U 19071C   20338.50964256  .00005032  00000-0  16039-3 0  9997
2 45113  51.6425 266.4764 0011885 309.1241  50.8684 15.34254346 47073
HUSKYSAT-1              
1 45119U 19071J   20338.20639238  .00006020  00000-0  18880-3 0  9993
2 45119  51.6429 267.4511 0011261 304.0558  55.9354 15.34401882 47021
BY70-2                  
1 45857U 20042B   20339.16718247  .00002356  00000-0  34509-3 0  9990
2 45857  98.0017  50.8608 0012599 122.2707 237.9738 14.76510276 22721
SALSAT                  
1 46495U 20068K   20338.64531162  .00000934  00000-0  73271-4 0  9998
2 46495  97.6742 271.5324 0018156  17.8628 342.3236 15.03265786  9917
BY70-3                  
1 46839U 20079N   20339.14438105  .00005825  00000-0  18878-3 0  9996
2 46839  97.2637  50.8302 0007609 173.9662 243.9822 15.32355932  4282
